ONEWEB-0207             
1 48242U 21031AJ  26016.55155539 -.00000107  00000+0 -32419-3 0  9991
2 48242  87.9029 319.9103 0001868  85.1850 274.9493 13.14501152228376
ONEWEB-0208             
1 48243U 21031AK  26016.76168553  .00000130  00000+0  31624-3 0  9996
2 48243  87.9028 319.8815 0001461  81.9122 278.2173 13.14503824228415
ONEWEB-0200             
1 48244U 21031AL  26016.57297241 -.00000006  00000+0 -50590-4 0  9991
2 48244  87.9023 319.9083 0001656  81.9274 278.2044 13.14503968228318
ONEWEB-0217             
1 48245U 21031AM  26016.89328668  .00000083  00000+0  18838-3 0  9996
2 48245  87.9033 319.8422 0001413  85.1849 274.9442 13.14500059228303
ONEWEB-0211             
1 48767U 21045A   26016.98467985  .00000214  00000+0  52919-3 0  9990
2 48767  87.9016 289.2932 0001154  72.4851 287.6406 13.16139859224555
ONEWEB-0223             
1 48768U 21045B   26016.99130200 -.00000035  00000+0 -12759-3 0  9990
2 48768  87.9014 289.3627 0001231  62.2546 297.8709 13.15548286224523
ONEWEB-0230             
1 48769U 21045C   26016.73460455  .00000090  00000+0  20501-3 0  9994
2 48769  87.9004 289.4412 0001770  73.8388 286.2938 13.15549017224750
ONEWEB-0237             
1 48770U 21045D   26016.72351120  .00000061  00000+0  12706-3 0  9999
2 48770  87.9006 289.4440 0001479  65.1652 294.9632 13.15549168224472
